start=new Date('2022-05-05T00:00:00.000Z').valueOf();
sats=[{"EPHEMERIS_TYPE":"0","OBJECT_TYPE":"PAYLOAD","REV_AT_EPOCH":"361","MEAN_ELEMENT_THEORY":"SGP4","TIME_SYSTEM":"UTC","TLE_LINE1":"1 51144U 22005AS  22124.91668981  .00039226  00000-0  24700-2 0  9990","EPOCH":"2022-05-04T22:00:01.999584","CENTER_NAME":"EARTH","INCLINATION":"53.2168","NORAD_CAT_ID":"51144","OBJECT_ID":"2022-005AS","SEMIMAJOR_AXIS":"6917.924","BSTAR":"0.00247000000000","OBJECT_NAME":"STARLINK-3185","APOAPSIS":"541.233","TLE_LINE2":"2 51144  53.2168 125.3741 0002087  48.9971 117.7158 15.08825758  3619","CLASSIFICATION_TYPE":"U","ECCENTRICITY":"0.00020870","RA_OF_ASC_NODE":"125.3741","ELEMENT_SET_NO":"999","COUNTRY_CODE":"US","FILE":"3429148","GP_ID":"202718713","ARG_OF_PERICENTER":"48.9971","PERIOD":"95.438","REF_FRAME":"TEME","DECAY_DATE":null,"MEAN_MOTION":"15.08825758","MEAN_MOTION_DOT":"0.00039226","MEAN_MOTION_DDOT":"0.0000000000000","MEAN_ANOMALY":"117.7158","LAUNCH_DATE":"2022-01-19","PERIAPSIS":"538.345","SITE":"AFETR","RCS_SIZE":"LARGE"},{"CLASSIFICATION_TYPE":"U","ECCENTRICITY":"0.00026250","OBJECT_NAME":"STARLINK-3365","BSTAR":"0.00299280000000","SEMIMAJOR_AXIS":"6917.921","TLE_LINE2":"2 51145  53.2165 135.3995 0002625  32.9404 258.6680 15.08826832  3610","APOAPSIS":"541.602","ELEMENT_SET_NO":"999","RA_OF_ASC_NODE":"135.3995","OBJECT_TYPE":"PAYLOAD","TIME_SYSTEM":"UTC","REV_AT_EPOCH":"361","MEAN_ELEMENT_THEORY":"SGP4","EPHEMERIS_TYPE":"0","NORAD_CAT_ID":"51145","OBJECT_ID":"2022-005AT","CENTER_NAME":"EARTH","EPOCH":"2022-05-04T22:00:01.999584","TLE_LINE1":"1 51145U 22005AT  22124.91668981  .00047649  00000-0  29928-2 0  9996","INCLINATION":"53.2165","MEAN_MOTION":"15.08826832","LAUNCH_DATE":"2022-01-19","MEAN_ANOMALY":"258.6680","MEAN_MOTION_DDOT":"0.0000000000000","MEAN_MOTION_DOT":"0.00047649","RCS_SIZE":"LARGE","SITE":"AFETR","PERIAPSIS":"537.970","COUNTRY_CODE":"US","REF_FRAME":"TEME","PERIOD":"95.438","ARG_OF_PERICENTER":"32.9404","GP_ID":"202716967","DECAY_DATE":null,"FILE":"3429148"},{"LAUNCH_DATE":"2022-01-19","MEAN_MOTION_DDOT":"0.0000000000000","MEAN_MOTION_DOT":"0.00040980","MEAN_ANOMALY":"81.1458","MEAN_MOTION":"15.08815495","RCS_SIZE":"LARGE","SITE":"AFETR","PERIAPSIS":"538.477","COUNTRY_CODE":"US","DECAY_DATE":null,"REF_FRAME":"TEME","PERIOD":"95.439","GP_ID":"202717217","ARG_OF_PERICENTER":"45.5745","FILE":"3429148","ECCENTRICITY":"0.00019420","CLASSIFICATION_TYPE":"U","TLE_LINE2":"2 51146  53.2165 125.3756 0001942  45.5745  81.1458 15.08815495  3620","APOAPSIS":"541.164","BSTAR":"0.00257970000000","OBJECT_NAME":"STARLINK-3354","SEMIMAJOR_AXIS":"6917.955","ELEMENT_SET_NO":"999","RA_OF_ASC_NODE":"125.3756","TIME_SYSTEM":"UTC","REV_AT_EPOCH":"362","MEAN_ELEMENT_THEORY":"SGP4","OBJECT_TYPE":"PAYLOAD","EPHEMERIS_TYPE":"0","OBJECT_ID":"2022-005AU","NORAD_CAT_ID":"51146","INCLINATION":"53.2165","CENTER_NAME":"EARTH","TLE_LINE1":"1 51146U 22005AU  22124.91668981  .00040980  00000-0  25797-2 0  9998","EPOCH":"2022-05-04T22:00:01.999584"},{"PERIAPSIS":"538.564","SITE":"AFETR","RCS_SIZE":"LARGE","MEAN_MOTION":"15.08831241","MEAN_MOTION_DOT":"0.00043824","MEAN_MOTION_DDOT":"0.0000000000000","MEAN_ANOMALY":"202.9125","LAUNCH_DATE":"2022-01-19","FILE":"3429148","GP_ID":"202718466","ARG_OF_PERICENTER":"48.7511","PERIOD":"95.438","REF_FRAME":"TEME","DECAY_DATE":null,"COUNTRY_CODE":"US","RA_OF_ASC_NODE":"135.3858","ELEMENT_SET_NO":"999","SEMIMAJOR_AXIS":"6917.907","BSTAR":"0.00275520000000","OBJECT_NAME":"STARLINK-3352","APOAPSIS":"540.981","TLE_LINE2":"2 51147  53.2184 135.3858 0001747  48.7511 202.9125 15.08831241  3604","CLASSIFICATION_TYPE":"U","ECCENTRICITY":"0.00017470","EPOCH":"2022-05-04T22:00:01.999584","TLE_LINE1":"1 51147U 22005AV  22124.91668981  .00043824  00000-0  27552-2 0  9990","CENTER_NAME":"EARTH","INCLINATION":"53.2184","NORAD_CAT_ID":"51147","OBJECT_ID":"2022-005AV","EPHEMERIS_TYPE":"0","OBJECT_TYPE":"PAYLOAD","MEAN_ELEMENT_THEORY":"SGP4","REV_AT_EPOCH":"360","TIME_SYSTEM":"UTC"},{"SEMIMAJOR_AXIS":"6917.981","OBJECT_NAME":"STARLINK-3359","BSTAR":"0.00307830000000","APOAPSIS":"541.551","TLE_LINE2":"2 51148  53.2147 135.3915 0002464  35.0517 276.6958 15.08806945  3593","CLASSIFICATION_TYPE":"U","ECCENTRICITY":"0.00024640","RA_OF_ASC_NODE":"135.3915","ELEMENT_SET_NO":"999","EPHEMERIS_TYPE":"0","OBJECT_TYPE":"PAYLOAD","REV_AT_EPOCH":"359","MEAN_ELEMENT_THEORY":"SGP4","TIME_SYSTEM":"UTC","TLE_LINE1":"1 51148U 22005AW  22124.91668981  .00049001  00000-0  30783-2 0  9994","EPOCH":"2022-05-04T22:00:01.999584","CENTER_NAME":"EARTH","INCLINATION":"53.2147","NORAD_CAT_ID":"51148","OBJECT_ID":"2022-005AW","MEAN_MOTION":"15.08806945","MEAN_MOTION_DDOT":"0.0000000000000","MEAN_ANOMALY":"276.6958","MEAN_MOTION_DOT":"0.00049001","LAUNCH_DATE":"2022-01-19","PERIAPSIS":"538.142","SITE":"AFETR","RCS_SIZE":"LARGE","COUNTRY_CODE":"US","FILE":"3429148","GP_ID":"202718213","ARG_OF_PERICENTER":"35.0517","REF_FRAME":"TEME","PERIOD":"95.440","DECAY_DATE":null},{"FILE":"3429148","PERIOD":"95.437","REF_FRAME":"TEME","ARG_OF_PERICENTER":"33.3839","GP_ID":"202717468","DECAY_DATE":null,"COUNTRY_CODE":"US","PERIAPSIS":"537.862","RCS_SIZE":"LARGE","SITE":"AFETR","MEAN_MOTION":"15.08848025","LAUNCH_DATE":"2022-01-19","MEAN_MOTION_DDOT":"0.0000000000000","MEAN_ANOMALY":"298.3015","MEAN_MOTION_DOT":"0.00008302","CENTER_NAME":"EARTH","TLE_LINE1":"1 51149U 22005AX  22124.91668981  .00008302  00000-0  53895-3 0  9994","EPOCH":"2022-05-04T22:00:01.999584","INCLINATION":"53.2144","NORAD_CAT_ID":"51149","OBJECT_ID":"2022-005AX","EPHEMERIS_TYPE":"0","OBJECT_TYPE":"PAYLOAD","TIME_SYSTEM":"UTC","REV_AT_EPOCH":"359","MEAN_ELEMENT_THEORY":"SGP4","RA_OF_ASC_NODE":"135.3905","ELEMENT_SET_NO":"999","BSTAR":"0.00053895000000","OBJECT_NAME":"STARLINK-3360","SEMIMAJOR_AXIS":"6917.856","TLE_LINE2":"2 51149  53.2144 135.3905 0002687  33.3839 298.3015 15.08848025  3595","APOAPSIS":"541.580","CLASSIFICATION_TYPE":"U","ECCENTRICITY":"0.00026870"},{"ELEMENT_SET_NO":"999","RA_OF_ASC_NODE":"125.3731","ECCENTRICITY":"0.00020290","CLASSIFICATION_TYPE":"U","TLE_LINE2":"2 51150  53.2170 125.3731 0002029  48.3790 158.3371 15.08838260  3617","APOAPSIS":"541.154","BSTAR":"0.00119270000000","OBJECT_NAME":"STARLINK-3357","SEMIMAJOR_AXIS":"6917.886","OBJECT_ID":"2022-005AY","NORAD_CAT_ID":"51150","INCLINATION":"53.2170","CENTER_NAME":"EARTH","EPOCH":"2022-05-04T22:00:01.999584","TLE_LINE1":"1 51150U 22005AY  22124.91668981  .00018744  00000-0  11927-2 0  9996","TIME_SYSTEM":"UTC","REV_AT_EPOCH":"361","MEAN_ELEMENT_THEORY":"SGP4","OBJECT_TYPE":"PAYLOAD","EPHEMERIS_TYPE":"0","RCS_SIZE":"LARGE","SITE":"AFETR","PERIAPSIS":"538.347","LAUNCH_DATE":"2022-01-19","MEAN_ANOMALY":"158.3371","MEAN_MOTION_DDOT":"0.0000000000000","MEAN_MOTION_DOT":"0.00018744","MEAN_MOTION":"15.08838260","DECAY_DATE":null,"REF_FRAME":"TEME","PERIOD":"95.438","ARG_OF_PERICENTER":"48.3790","GP_ID":"202717718","FILE":"3429148","COUNTRY_CODE":"US"},{"ELEMENT_SET_NO":"999","RA_OF_ASC_NODE":"135.3866","CLASSIFICATION_TYPE":"U","ECCENTRICITY":"0.00024050","SEMIMAJOR_AXIS":"6917.981","BSTAR":"0.00319260000000","OBJECT_NAME":"STARLINK-3361","APOAPSIS":"541.510","TLE_LINE2":"2 51151  53.2140 135.3866 0002405  41.3592 330.3384 15.08807024  3605","NORAD_CAT_ID":"51151","OBJECT_ID":"2022-005AZ","TLE_LINE1":"1 51151U 22005AZ  22124.91668981  .00050844  00000-0  31926-2 0  9995","EPOCH":"2022-05-04T22:00:01.999584","CENTER_NAME":"EARTH","INCLINATION":"53.2140","OBJECT_TYPE":"PAYLOAD","MEAN_ELEMENT_THEORY":"SGP4","REV_AT_EPOCH":"360","TIME_SYSTEM":"UTC","EPHEMERIS_TYPE":"0","SITE":"AFETR","RCS_SIZE":"LARGE","PERIAPSIS":"538.182","MEAN_MOTION":"15.08807024","MEAN_ANOMALY":"330.3384","MEAN_MOTION_DDOT":"0.0000000000000","MEAN_MOTION_DOT":"0.00050844","LAUNCH_DATE":"2022-01-19","ARG_OF_PERICENTER":"41.3592","GP_ID":"202717966","PERIOD":"95.440","REF_FRAME":"TEME","DECAY_DATE":null,"FILE":"3429148","COUNTRY_CODE":"US"},{"RA_OF_ASC_NODE":"135.3865","ELEMENT_SET_NO":"999","SEMIMAJOR_AXIS":"6917.914","OBJECT_NAME":"STARLINK-3364","BSTAR":"0.00320510000000","APOAPSIS":"541.486","TLE_LINE2":"2 51152  53.2149 135.3865 0002467  42.4183 309.2098 15.08828856  3614","CLASSIFICATION_TYPE":"U","ECCENTRICITY":"0.00024670","EPOCH":"2022-05-04T22:00:01.999584","TLE_LINE1":"1 51152U 22005BA  22124.91668981  .00051077  00000-0  32051-2 0  9995","CENTER_NAME":"EARTH","INCLINATION":"53.2149","NORAD_CAT_ID":"51152","OBJECT_ID":"2022-005BA","EPHEMERIS_TYPE":"0","OBJECT_TYPE":"PAYLOAD","REV_AT_EPOCH":"361","MEAN_ELEMENT_THEORY":"SGP4","TIME_SYSTEM":"UTC","PERIAPSIS":"538.073","SITE":"AFETR","RCS_SIZE":"LARGE","MEAN_MOTION":"15.08828856","MEAN_MOTION_DDOT":"0.0000000000000","MEAN_ANOMALY":"309.2098","MEAN_MOTION_DOT":"0.00051077","LAUNCH_DATE":"2022-01-19","FILE":"3429148","ARG_OF_PERICENTER":"42.4183","GP_ID":"202718714","REF_FRAME":"TEME","PERIOD":"95.438","DECAY_DATE":null,"COUNTRY_CODE":"US"},{"LAUNCH_DATE":"2022-02-03","MEAN_MOTION_DOT":"-0.00014059","MEAN_MOTION_DDOT":"0.0000000000000","MEAN_ANOMALY":"228.6797","MEAN_MOTION":"15.08852557","RCS_SIZE":"LARGE","SITE":"AFETR","PERIAPSIS":"538.378","COUNTRY_CODE":"US","DECAY_DATE":null,"REF_FRAME":"TEME","PERIOD":"95.437","ARG_OF_PERICENTER":"48.0502","GP_ID":"202718733","FILE":"3429148","ECCENTRICITY":"0.00019210","CLASSIFICATION_TYPE":"U","TLE_LINE2":"2 51460  53.2162 105.3747 0001921  48.0502 228.6797 15.08852557  3602","APOAPSIS":"541.036","OBJECT_NAME":"STARLINK-3167","BSTAR":"-0.00086661000000","SEMIMAJOR_AXIS":"6917.842","ELEMENT_SET_NO":"999","RA_OF_ASC_NODE":"105.3747","TIME_SYSTEM":"UTC","REV_AT_EPOCH":"360","MEAN_ELEMENT_THEORY":"SGP4","OBJECT_TYPE":"PAYLOAD","EPHEMERIS_TYPE":"0","OBJECT_ID":"2022-010E","NORAD_CAT_ID":"51460","INCLINATION":"53.2162","CENTER_NAME":"EARTH","EPOCH":"2022-05-04T22:00:01.999584","TLE_LINE1":"1 51460U 22010E   22124.91668981 -.00014059  00000-0 -86661-3 0  9991"}];
